{
  "type": "FeatureCollection",
  "features": [
    {
      "type": "Feature",
      "properties": {
        "norad_id": 34056,
        "name": "COSMOS 2251 DEB",
        "group": "cosmos-2251-debris",
        "lat": -73.80296754702371,
        "lon": -27.36473816692874,
        "alt_km": 919.1693100266821,
        "timestamp": "2025-12-26T03:50:12.487757+00:00",
        "meta_object_name": "COSMOS 2251 DEB",
        "meta_object_id": "1993-036JT",
        "meta_epoch": "2025-12-25T13:35:12.468192",
        "meta_mean_motion": 14.20599559,
        "meta_eccentricity": 0.0123692,
        "meta_inclination": 74.0581,
        "meta_ra_of_asc_node": 53.4416,
        "meta_arg_of_pericenter": 97.9047,
        "meta_mean_anomaly": 19.5232,
        "meta_ephemeris_type": 0,
        "meta_classification_type": "U",
        "meta_norad_cat_id": 34056,
        "meta_element_set_no": 999,
        "meta_rev_at_epoch": 86593,
        "meta_bstar": 0.00073456,
        "meta_mean_motion_dot": 1.683e-05,
        "meta_mean_motion_ddot": 0,
        "tle_line1": "1 34056U 93036JT  25359.56611653  .00001683  00000+0  73456-3 0  9991",
        "tle_line2": "2 34056  74.0581  53.4416 0123692  97.9047  19.5232 14.20599559865939"
      },
      "geometry": {
        "type": "Point",
        "coordinates": [
          -27.36473816692874,
          -73.80296754702371
        ]
      }
    },
    {
      "type": "Feature",
      "properties": {
        "norad_id": 34058,
        "name": "COSMOS 2251 DEB",
        "group": "cosmos-2251-debris",
        "lat": -13.433303838409962,
        "lon": -19.692844753223845,
        "alt_km": 850.0813809235196,
        "timestamp": "2025-12-26T03:50:12.487768+00:00",
        "meta_object_name": "COSMOS 2251 DEB",
        "meta_object_id": "1993-036JV",
        "meta_epoch": "2025-12-25T20:26:12.164352",
        "meta_mean_motion": 13.56097038,
        "meta_eccentricity": 0.0377329,
        "meta_inclination": 73.9318,
        "meta_ra_of_asc_node": 156.8596,
        "meta_arg_of_pericenter": 149.603,
        "meta_mean_anomaly": 336.5603,
        "meta_ephemeris_type": 0,
        "meta_classification_type": "U",
        "meta_norad_cat_id": 34058,
        "meta_element_set_no": 999,
        "meta_rev_at_epoch": 83320,
        "meta_bstar": 0.00080484,
        "meta_mean_motion_dot": 8.73e-06,
        "meta_mean_motion_ddot": 0,
        "tle_line1": "1 34058U 93036JV  25359.85152968  .00000873  00000+0  80484-3 0  9993",
        "tle_line2": "2 34058  73.9318 156.8596 0377329 149.6030 336.5603 13.56097038833201"
      },
      "geometry": {
        "type": "Point",
        "coordinates": [
          -19.692844753223845,
          -13.433303838409962
        ]
      }
    },
    {
      "type": "Feature",
      "properties": {
        "norad_id": 34059,
        "name": "COSMOS 2251 DEB",
        "group": "cosmos-2251-debris",
        "lat": 46.12585715109677,
        "lon": 178.2779421607671,
        "alt_km": 724.3018850490707,
        "timestamp": "2025-12-26T03:50:12.487778+00:00",
        "meta_object_name": "COSMOS 2251 DEB",
        "meta_object_id": "1993-036JW",
        "meta_epoch": "2025-12-25T19:56:17.993184",
        "meta_mean_motion": 14.53026462,
        "meta_eccentricity": 0.0018389,
        "meta_inclination": 74.0376,
        "meta_ra_of_asc_node": 161.5792,
        "meta_arg_of_pericenter": 237.9298,
        "meta_mean_anomaly": 249.8826,
        "meta_ephemeris_type": 0,
        "meta_classification_type": "U",
        "meta_norad_cat_id": 34059,
        "meta_element_set_no": 999,
        "meta_rev_at_epoch": 88649,
        "meta_bstar": 0.00090187,
        "meta_mean_motion_dot": 3.705e-05,
        "meta_mean_motion_ddot": 0,
        "tle_line1": "1 34059U 93036JW  25359.83076381  .00003705  00000+0  90187-3 0  9994",
        "tle_line2": "2 34059  74.0376 161.5792 0018389 237.9298 249.8826 14.53026462886497"
      },
      "geometry": {
        "type": "Point",
        "coordinates": [
          178.2779421607671,
          46.12585715109677
        ]
      }
    },
    {
      "type": "Feature",
      "properties": {
        "norad_id": 34061,
        "name": "COSMOS 2251 DEB",
        "group": "cosmos-2251-debris",
        "lat": 31.802342057511506,
        "lon": 48.361378830886764,
        "alt_km": 769.5689298599245,
        "timestamp": "2025-12-26T03:50:12.487788+00:00",
        "meta_object_name": "COSMOS 2251 DEB",
        "meta_object_id": "1993-036JY",
        "meta_epoch": "2025-12-25T02:43:57.046944",
        "meta_mean_motion": 14.40381412,
        "meta_eccentricity": 0.00208961,
        "meta_inclination": 74.0385,
        "meta_ra_of_asc_node": 240.5167,
        "meta_arg_of_pericenter": 315.6737,
        "meta_mean_anomaly": 169.274,
        "meta_ephemeris_type": 0,
        "meta_classification_type": "U",
        "meta_norad_cat_id": 34061,
        "meta_element_set_no": 999,
        "meta_rev_at_epoch": 88358,
        "meta_bstar": 0.00027718369,
        "meta_mean_motion_dot": 8.55e-06,
        "meta_mean_motion_ddot": 0,
        "tle_line1": "1 34061U 93036JY  25359.11385471  .00000855  00000+0  27718-3 0  9994",
        "tle_line2": "2 34061  74.0385 240.5167 0020896 315.6737 169.2740 14.40381412883584"
      },
      "geometry": {
        "type": "Point",
        "coordinates": [
          48.361378830886764,
          31.802342057511506
        ]
      }
    },
    {
      "type": "Feature",
      "properties": {
        "norad_id": 34062,
        "name": "COSMOS 2251 DEB",
        "group": "cosmos-2251-debris",
        "lat": -30.254993689733364,
        "lon": 102.01561383898245,
        "alt_km": 676.7823326330608,
        "timestamp": "2025-12-26T03:50:12.487799+00:00",
        "meta_object_name": "COSMOS 2251 DEB",
        "meta_object_id": "1993-036JZ",
        "meta_epoch": "2025-12-25T08:45:30.903264",
        "meta_mean_motion": 14.79163104,
        "meta_eccentricity": 0.007279,
        "meta_inclination": 74.0282,
        "meta_ra_of_asc_node": 113.1965,
        "meta_arg_of_pericenter": 189.6413,
        "meta_mean_anomaly": 227.0776,
        "meta_ephemeris_type": 0,
        "meta_classification_type": "U",
        "meta_norad_cat_id": 34062,
        "meta_element_set_no": 999,
        "meta_rev_at_epoch": 88782,
        "meta_bstar": 0.0027007,
        "meta_mean_motion_dot": 0.00020977,
        "meta_mean_motion_ddot": 0,
        "tle_line1": "1 34062U 93036JZ  25359.36494101  .00020977  00000+0  27007-2 0  9990",
        "tle_line2": "2 34062  74.0282 113.1965 0072790 189.6413 227.0776 14.79163104887823"
      },
      "geometry": {
        "type": "Point",
        "coordinates": [
          102.01561383898245,
          -30.254993689733364
        ]
      }
    },
    {
      "type": "Feature",
      "properties": {
        "norad_id": 34064,
        "name": "COSMOS 2251 DEB",
        "group": "cosmos-2251-debris",
        "lat": -34.58527850962467,
        "lon": 77.35819427840788,
        "alt_km": 757.7269863955653,
        "timestamp": "2025-12-26T03:50:12.487809+00:00",
        "meta_object_name": "COSMOS 2251 DEB",
        "meta_object_id": "1993-036KB",
        "meta_epoch": "2025-12-24T17:48:17.428896",
        "meta_mean_motion": 14.42375968,
        "meta_eccentricity": 0.00224019,
        "meta_inclination": 74.0318,
        "meta_ra_of_asc_node": 248.602,
        "meta_arg_of_pericenter": 313.5354,
        "meta_mean_anomaly": 102.745,
        "meta_ephemeris_type": 0,
        "meta_classification_type": "U",
        "meta_norad_cat_id": 34064,
        "meta_element_set_no": 999,
        "meta_rev_at_epoch": 88315,
        "meta_bstar": 0.00043746488,
        "meta_mean_motion_dot": 1.424e-05,
        "meta_mean_motion_ddot": 0,
        "tle_line1": "1 34064U 93036KB  25358.74186839  .00001424  00000+0  43746-3 0  9994",
        "tle_line2": "2 34064  74.0318 248.6020 0022401 313.5354 102.7450 14.42375968883150"
      },
      "geometry": {
        "type": "Point",
        "coordinates": [
          77.35819427840788,
          -34.58527850962467
        ]
      }
    },
    {
      "type": "Feature",
      "properties": {
        "norad_id": 34065,
        "name": "COSMOS 2251 DEB",
        "group": "cosmos-2251-debris",
        "lat": 21.625069902290935,
        "lon": -120.08121301514801,
        "alt_km": 757.1974722249606,
        "timestamp": "2025-12-26T03:50:12.487819+00:00",
        "meta_object_name": "COSMOS 2251 DEB",
        "meta_object_id": "1993-036KC",
        "meta_epoch": "2025-12-25T18:00:00.444960",
        "meta_mean_motion": 14.38075707,
        "meta_eccentricity": 0.0016884,
        "meta_inclination": 74.0347,
        "meta_ra_of_asc_node": 234.157,
        "meta_arg_of_pericenter": 329.4981,
        "meta_mean_anomaly": 91.9598,
        "meta_ephemeris_type": 0,
        "meta_classification_type": "U",
        "meta_norad_cat_id": 34065,
        "meta_element_set_no": 999,
        "meta_rev_at_epoch": 88392,
        "meta_bstar": 0.00014735,
        "meta_mean_motion_dot": 4.21e-06,
        "meta_mean_motion_ddot": 0,
        "tle_line1": "1 34065U 93036KC  25359.75000515  .00000421  00000+0  14735-3 0  9995",
        "tle_line2": "2 34065  74.0347 234.1570 0016884 329.4981  91.9598 14.38075707883923"
      },
      "geometry": {
        "type": "Point",
        "coordinates": [
          -120.08121301514801,
          21.625069902290935
        ]
      }
    }
  ]
}